{"type": "FeatureCollection", "features": [ {"type": "Feature", "properties": {"norad_id": 36258, "name": "FENGYUN 1C DEB", "group": "fengyun-1c-debris", "lat": -14.347782747478968, "lon": 31.7393416318255, "alt_km": 677.0182161653483, "timestamp": "2025-12-24T11:33:00.305702+00:00", "meta": {"OBJECT_NAME": "FENGYUN 1C DEB", "OBJECT_ID": "1999-025DWK", "EPOCH": "2025-12-23T19:20:03.344928", "MEAN_MOTION": 14.74902251, "ECCENTRICITY": 0.01735636, "INCLINATION": 99.0861, "RA_OF_ASC_NODE": 28.6354, "ARG_OF_PERICENTER": 91.4146, "MEAN_ANOMALY": 270.6949, "EPHEMERIS_TYPE": 0, "CLASSIFICATION_TYPE": "U", "NORAD_CAT_ID": 36258, "ELEMENT_SET_NO": 999, "REV_AT_EPOCH": 90985, "BSTAR": 0.00029871875, "MEAN_MOTION_DOT": 2.485e-05, "MEAN_MOTION_DDOT": 0}, "tle": {"line1": "1 36258U 99025DWK 25357.80559427  .00002485  00000+0  29872-3 0  9990", "line2": "2 36258  99.0861  28.6354 0173563  91.4146 270.6949 14.74902251909850"}}, "geometry": {"type": "Point", "coordinates": [31.7393416318255, -14.347782747478968]}}, {"type": "Feature", "properties": {"norad_id": 36260, "name": "FENGYUN 1C DEB", "group": "fengyun-1c-debris", "lat": 32.59148118883514, "lon": -174.0844899827658, "alt_km": 834.710498139506, "timestamp": "2025-12-24T11:33:00.305711+00:00", "meta": {"OBJECT_NAME": "FENGYUN 1C DEB", "OBJECT_ID": "1999-025DWM", "EPOCH": "2025-12-23T11:06:16.441056", "MEAN_MOTION": 14.15380379, "ECCENTRICITY": 0.0015322, "INCLINATION": 98.6614, "RA_OF_ASC_NODE": 359.3339, "ARG_OF_PERICENTER": 217.0014, "MEAN_ANOMALY": 143.0104, "EPHEMERIS_TYPE": 0, "CLASSIFICATION_TYPE": "U", "NORAD_CAT_ID": 36260, "ELEMENT_SET_NO": 999, "REV_AT_EPOCH": 87960, "BSTAR": 0.00016677, "MEAN_MOTION_DOT": 2.83e-06, "MEAN_MOTION_DDOT": 0}, "tle": {"line1": "1 36260U 99025DWM 25357.46269029  .00000283  00000+0  16677-3 0  9994", "line2": "2 36260  98.6614 359.3339 0015322 217.0014 143.0104 14.15380379879600"}}, "geometry": {"type": "Point", "coordinates": [-174.0844899827658, 32.59148118883514]}}, {"type": "Feature", "properties": {"norad_id": 36261, "name": "FENGYUN 1C DEB", "group": "fengyun-1c-debris", "lat": -20.88939332393755, "lon": 67.83909787379676, "alt_km": 1329.093417858152, "timestamp": "2025-12-24T11:33:00.305722+00:00", "meta": {"OBJECT_NAME": "FENGYUN 1C DEB", "OBJECT_ID": "1999-025DWN", "EPOCH": "2025-12-21T21:54:08.945856", "MEAN_MOTION": 13.45489066, "ECCENTRICITY": 0.0355784, "INCLINATION": 101.3653, "RA_OF_ASC_NODE": 249.3329, "ARG_OF_PERICENTER": 53.9734, "MEAN_ANOMALY": 309.3818, "EPHEMERIS_TYPE": 0, "CLASSIFICATION_TYPE": "U", "NORAD_CAT_ID": 36261, "ELEMENT_SET_NO": 999, "REV_AT_EPOCH": 84556, "BSTAR": 0.0006096013, "MEAN_MOTION_DOT": 4.76e-06, "MEAN_MOTION_DDOT": 0}, "tle": {"line1": "1 36261U 99025DWN 25355.91260354  .00000476  00000+0  60960-3 0  9993", "line2": "2 36261 101.3653 249.3329 0355784  53.9734 309.3818 13.45489066845560"}}, "geometry": {"type": "Point", "coordinates": [67.83909787379676, -20.88939332393755]}}, {"type": "Feature", "properties": {"norad_id": 36262, "name": "FENGYUN 1C DEB", "group": "fengyun-1c-debris", "lat": 71.57412021391434, "lon": 87.55813340669107, "alt_km": 822.2515062731964, "timestamp": "2025-12-24T11:33:00.305732+00:00", "meta": {"OBJECT_NAME": "FENGYUN 1C DEB", "OBJECT_ID": "1999-025DWP", "EPOCH": "2025-12-20T09:30:11.047680", "MEAN_MOTION": 14.27815477, "ECCENTRICITY": 0.00597653, "INCLINATION": 98.9612, "RA_OF_ASC_NODE": 235.0995, "ARG_OF_PERICENTER": 252.8725, "MEAN_ANOMALY": 106.5905, "EPHEMERIS_TYPE": 0, "CLASSIFICATION_TYPE": "U", "NORAD_CAT_ID": 36262, "ELEMENT_SET_NO": 999, "REV_AT_EPOCH": 89606, "BSTAR": 0.00020370681, "MEAN_MOTION_DOT": 4.66e-06, "MEAN_MOTION_DDOT": 0}, "tle": {"line1": "1 36262U 99025DWP 25354.39596120  .00000466  00000+0  20371-3 0  9999", "line2": "2 36262  98.9612 235.0995 0059765 252.8725 106.5905 14.27815477896063"}}, "geometry": {"type": "Point", "coordinates": [87.55813340669107, 71.57412021391434]}}, {"type": "Feature", "properties": {"norad_id": 36263, "name": "FENGYUN 1C DEB", "group": "fengyun-1c-debris", "lat": -45.91390938232546, "lon": -110.34346426672394, "alt_km": 743.5112379749098, "timestamp": "2025-12-24T11:33:00.305742+00:00", "meta": {"OBJECT_NAME": "FENGYUN 1C DEB", "OBJECT_ID": "1999-025DWQ", "EPOCH": "2025-12-23T02:32:47.573088", "MEAN_MOTION": 14.45760949, "ECCENTRICITY": 0.003569, "INCLINATION": 98.999, "RA_OF_ASC_NODE": 238.7825, "ARG_OF_PERICENTER": 233.3713, "MEAN_ANOMALY": 126.4193, "EPHEMERIS_TYPE": 0, "CLASSIFICATION_TYPE": "U", "NORAD_CAT_ID": 36263, "ELEMENT_SET_NO": 999, "REV_AT_EPOCH": 88135, "BSTAR": 0.0018442, "MEAN_MOTION_DOT": 6.544e-05, "MEAN_MOTION_DDOT": 0}, "tle": {"line1": "1 36263U 99025DWQ 25357.10610617  .00006544  00000+0  18442-2 0  9998", "line2": "2 36263  98.9990 238.7825 0035690 233.3713 126.4193 14.45760949881356"}}, "geometry": {"type": "Point", "coordinates": [-110.34346426672394, -45.91390938232546]}}, {"type": "Feature", "properties": {"norad_id": 36267, "name": "FENGYUN 1C DEB", "group": "fengyun-1c-debris", "lat": 63.94453118862541, "lon": -72.65177579623109, "alt_km": 888.8705999707772, "timestamp": "2025-12-24T11:33:00.305753+00:00", "meta": {"OBJECT_NAME": "FENGYUN 1C DEB", "OBJECT_ID": "1999-025DWU", "EPOCH": "2025-12-17T02:18:42.156000", "MEAN_MOTION": 14.09111328, "ECCENTRICITY": 0.0126413, "INCLINATION": 98.559, "RA_OF_ASC_NODE": 298.2704, "ARG_OF_PERICENTER": 197.9977, "MEAN_ANOMALY": 227.0895, "EPHEMERIS_TYPE": 0, "CLASSIFICATION_TYPE": "U", "NORAD_CAT_ID": 36267, "ELEMENT_SET_NO": 999, "REV_AT_EPOCH": 86591, "BSTAR": 0.00083999853, "MEAN_MOTION_DOT": 1.528e-05, "MEAN_MOTION_DDOT": 0}, "tle": {"line1": "1 36267U 99025DWU 25351.09632125  .00001528  00000+0  84000-3 0  9993", "line2": "2 36267  98.5590 298.2704 0126413 197.9977 227.0895 14.09111328865912"}}, "geometry": {"type": "Point", "coordinates": [-72.65177579623109, 63.94453118862541]}}, {"type": "Feature", "properties": {"norad_id": 36269, "name": "FENGYUN 1C DEB", "group": "fengyun-1c-debris", "lat": -35.60831411647525, "lon": 114.33627470951745, "alt_km": 661.7155144671397, "timestamp": "2025-12-24T11:33:00.305769+00:00", "meta": {"OBJECT_NAME": "FENGYUN 1C DEB", "OBJECT_ID": "1999-025DWW", "EPOCH": "2025-12-14T01:28:51.707712", "MEAN_MOTION": 14.27043075, "ECCENTRICITY": 0.02331074, "INCLINATION": 99.1079, "RA_OF_ASC_NODE": 290.0784, "ARG_OF_PERICENTER": 275.9651, "MEAN_ANOMALY": 81.5008, "EPHEMERIS_TYPE": 0, "CLASSIFICATION_TYPE": "U", "NORAD_CAT_ID": 36269, "ELEMENT_SET_NO": 999, "REV_AT_EPOCH": 87735, "BSTAR": 0.00079666975, "MEAN_MOTION_DOT": 2.532e-05, "MEAN_MOTION_DDOT": 0}, "tle": {"line1": "1 36269U 99025DWW 25348.06170958  .00002532  00000+0  79667-3 0  9998", "line2": "2 36269  99.1079 290.0784 0233107 275.9651  81.5008 14.27043075877359"}}, "geometry": {"type": "Point", "coordinates": [114.33627470951745, -35.60831411647525]}}, {"type": "Feature", "properties": {"norad_id": 36272, "name": "FENGYUN 1C DEB", "group": "fengyun-1c-debris", "lat": -67.98696462235847, "lon": 31.64134338614009, "alt_km": 724.6486062244012, "timestamp": "2025-12-24T11:33:00.305781+00:00", "meta": {"OBJECT_NAME": "FENGYUN 1C DEB", "OBJECT_ID": "1999-025DWZ", "EPOCH": "2025-12-15T09:29:34.780416", "MEAN_MOTION": 14.17259115, "ECCENTRICITY": 0.01679127, "INCLINATION": 99.1362, "RA_OF_ASC_NODE": 225.7589, "ARG_OF_PERICENTER": 260.5869, "MEAN_ANOMALY": 97.6289, "EPHEMERIS_TYPE": 0, "CLASSIFICATION_TYPE": "U", "NORAD_CAT_ID": 36272, "ELEMENT_SET_NO": 999, "REV_AT_EPOCH": 63654, "BSTAR": 0.00052291356, "MEAN_MOTION_DOT": 1.164e-05, "MEAN_MOTION_DDOT": 0}, "tle": {"line1": "1 36272U 99025DWZ 25349.39554144  .00001164  00000+0  52291-3 0  9996", "line2": "2 36272  99.1362 225.7589 0167912 260.5869  97.6289 14.17259115636543"}}, "geometry": {"type": "Point", "coordinates": [31.64134338614009, -67.98696462235847]}}, {"type": "Feature", "properties": {"norad_id": 36273, "name": "FENGYUN 1C DEB", "group": "fengyun-1c-debris", "lat": -23.48855298462245, "lon": 44.633670788735294, "alt_km": 868.0754516017441, "timestamp": "2025-12-24T11:33:00.305791+00:00", "meta": {"OBJECT_NAME": "FENGYUN 1C DEB", "OBJECT_ID": "1999-025DXA", "EPOCH": "2025-12-10T21:07:00.418080", "MEAN_MOTION": 14.16564043, "ECCENTRICITY": 0.0096501, "INCLINATION": 99.6045, "RA_OF_ASC_NODE": 214.1863, "ARG_OF_PERICENTER": 353.8475, "MEAN_ANOMALY": 6.1504, "EPHEMERIS_TYPE": 0, "CLASSIFICATION_TYPE": "U", "NORAD_CAT_ID": 36273, "ELEMENT_SET_NO": 999, "REV_AT_EPOCH": 66207, "BSTAR": 0.00042955, "MEAN_MOTION_DOT": 8.45e-06, "MEAN_MOTION_DDOT": 0}, "tle": {"line1": "1 36273U 99025DXA 25344.87986595  .00000845  00000+0  42955-3 0  9995", "line2": "2 36273  99.6045 214.1863 0096501 353.8475   6.1504 14.16564043662078"}}, "geometry": {"type": "Point", "coordinates": [44.633670788735294, -23.48855298462245]}}, {"type": "Feature", "properties": {"norad_id": 36274, "name": "FENGYUN 1C DEB", "group": "fengyun-1c-debris", "lat": 27.4464244689991, "lon": -102.11224050298287, "alt_km": 780.050420953301, "timestamp": "2025-12-24T11:33:00.305802+00:00", "meta": {"OBJECT_NAME": "FENGYUN 1C DEB", "OBJECT_ID": "1999-025DXB", "EPOCH": "2025-12-17T22:47:53.566656", "MEAN_MOTION": 14.23538431, "ECCENTRICITY": 0.00628224, "INCLINATION": 99.1393, "RA_OF_ASC_NODE": 66.31, "ARG_OF_PERICENTER": 216.0086, "MEAN_ANOMALY": 323.0446, "EPHEMERIS_TYPE": 0, "CLASSIFICATION_TYPE": "U", "NORAD_CAT_ID": 36274, "ELEMENT_SET_NO": 999, "REV_AT_EPOCH": 63059, "BSTAR": 0.00240831, "MEAN_MOTION_DOT": 5.549e-05, "MEAN_MOTION_DDOT": 0}, "tle": {"line1": "1 36274U 99025DXB 25351.94992554  .00005549  00000+0  24083-2 0  9991", "line2": "2 36274  99.1393  66.3100 0062822 216.0086 323.0446 14.23538431630596"}}, "geometry": {"type": "Point", "coordinates": [-102.11224050298287, 27.4464244689991]}}]}